[{"OBJECT_NAME":"JCSAT-3A","OBJECT_ID":"2006-033A","EPOCH":"2026-03-07T09:48:38.712096","MEAN_MOTION":1.00271336,"ECCENTRICITY":0.00020766,"INCLINATION":0.0232,"RA_OF_ASC_NODE":257.4623,"ARG_OF_PERICENTER":91.2403,"MEAN_ANOMALY":91.5694,"EPHEMERIS_TYPE":0,"CLASSIFICATION_TYPE":"U","NORAD_CAT_ID":29272,"ELEMENT_SET_NO":999,"REV_AT_EPOCH":4671,"BSTAR":0,"MEAN_MOTION_DOT":-3.46e-6,"MEAN_MOTION_DDOT":0},{"OBJECT_NAME":"SYRACUSE 3B","OBJECT_ID":"2006-033B","EPOCH":"2026-03-07T07:05:14.754624","MEAN_MOTION":1.00271594,"ECCENTRICITY":0.00040585,"INCLINATION":2.6368,"RA_OF_ASC_NODE":81.3565,"ARG_OF_PERICENTER":267.699,"MEAN_ANOMALY":285.5692,"EPHEMERIS_TYPE":0,"CLASSIFICATION_TYPE":"U","NORAD_CAT_ID":29273,"ELEMENT_SET_NO":999,"REV_AT_EPOCH":7165,"BSTAR":0,"MEAN_MOTION_DOT":1.9e-7,"MEAN_MOTION_DDOT":0},{"OBJECT_NAME":"KOREASAT 5 (MUGUNGWHA 5)","OBJECT_ID":"2006-034A","EPOCH":"2026-03-07T13:57:38.791008","MEAN_MOTION":1.00272773,"ECCENTRICITY":0.00019825,"INCLINATION":1.5221,"RA_OF_ASC_NODE":84.3188,"ARG_OF_PERICENTER":301.874,"MEAN_ANOMALY":101.5552,"EPHEMERIS_TYPE":0,"CLASSIFICATION_TYPE":"U","NORAD_CAT_ID":29349,"ELEMENT_SET_NO":999,"REV_AT_EPOCH":4030,"BSTAR":0,"MEAN_MOTION_DOT":-3.59e-6,"MEAN_MOTION_DDOT":0},{"OBJECT_NAME":"ZHONGXING-22A","OBJECT_ID":"2006-038A","EPOCH":"2026-03-07T07:32:47.227200","MEAN_MOTION":1.00070258,"ECCENTRICITY":0.0001115,"INCLINATION":11.3104,"RA_OF_ASC_NODE":38.1924,"ARG_OF_PERICENTER":261.2857,"MEAN_ANOMALY":219.8034,"EPHEMERIS_TYPE":0,"CLASSIFICATION_TYPE":"U","NORAD_CAT_ID":29398,"ELEMENT_SET_NO":999,"REV_AT_EPOCH":7136,"BSTAR":0,"MEAN_MOTION_DOT":1.1e-7,"MEAN_MOTION_DDOT":0},{"OBJECT_NAME":"DIRECTV 9S","OBJECT_ID":"2006-043A","EPOCH":"2026-03-07T08:07:28.871040","MEAN_MOTION":1.0027246,"ECCENTRICITY":0.0003186,"INCLINATION":2.1576,"RA_OF_ASC_NODE":82.1645,"ARG_OF_PERICENTER":274.9456,"MEAN_ANOMALY":188.5978,"EPHEMERIS_TYPE":0,"CLASSIFICATION_TYPE":"U","NORAD_CAT_ID":29494,"ELEMENT_SET_NO":999,"REV_AT_EPOCH":5036,"BSTAR":0,"MEAN_MOTION_DOT":-1.15e-6,"MEAN_MOTION_DDOT":0},{"OBJECT_NAME":"OPTUS D1","OBJECT_ID":"2006-043B","EPOCH":"2026-03-07T12:43:38.625024","MEAN_MOTION":1.00272266,"ECCENTRICITY":0.00039061,"INCLINATION":2.7727,"RA_OF_ASC_NODE":80.9279,"ARG_OF_PERICENTER":271.7035,"MEAN_ANOMALY":155.4915,"EPHEMERIS_TYPE":0,"CLASSIFICATION_TYPE":"U","NORAD_CAT_ID":29495,"ELEMENT_SET_NO":999,"REV_AT_EPOCH":7110,"BSTAR":0,"MEAN_MOTION_DOT":-1.85e-6,"MEAN_MOTION_DDOT":0},{"OBJECT_NAME":"BADR-4","OBJECT_ID":"2006-051A","EPOCH":"2026-03-07T07:11:51.620928","MEAN_MOTION":1.00273673,"ECCENTRICITY":0.00074407,"INCLINATION":1.7418,"RA_OF_ASC_NODE":82.261,"ARG_OF_PERICENTER":266.7149,"MEAN_ANOMALY":310.2237,"EPHEMERIS_TYPE":0,"CLASSIFICATION_TYPE":"U","NORAD_CAT_ID":29526,"ELEMENT_SET_NO":999,"REV_AT_EPOCH":5024,"BSTAR":0,"MEAN_MOTION_DOT":1.43e-6,"MEAN_MOTION_DDOT":0},{"OBJECT_NAME":"WILDBLUE-1","OBJECT_ID":"2006-054A","EPOCH":"2026-03-07T08:34:38.622144","MEAN_MOTION":1.00270386,"ECCENTRICITY":0.00016331,"INCLINATION":2.5402,"RA_OF_ASC_NODE":81.795,"ARG_OF_PERICENTER":270.6089,"MEAN_ANOMALY":190.1207,"EPHEMERIS_TYPE":0,"CLASSIFICATION_TYPE":"U","NORAD_CAT_ID":29643,"ELEMENT_SET_NO":999,"REV_AT_EPOCH":5277,"BSTAR":0,"MEAN_MOTION_DOT":-5.0e-7,"MEAN_MOTION_DDOT":0},{"OBJECT_NAME":"MEASAT-3","OBJECT_ID":"2006-056A","EPOCH":"2026-03-07T07:31:38.642880","MEAN_MOTION":0.99754196,"ECCENTRICITY":0.00058681,"INCLINATION":4.4668,"RA_OF_ASC_NODE":77.4277,"ARG_OF_PERICENTER":229.8705,"MEAN_ANOMALY":146.5269,"EPHEMERIS_TYPE":0,"CLASSIFICATION_TYPE":"U","NORAD_CAT_ID":29648,"ELEMENT_SET_NO":999,"REV_AT_EPOCH":4937,"BSTAR":0,"MEAN_MOTION_DOT":-8.0e-7,"MEAN_MOTION_DDOT":0},{"OBJECT_NAME":"SKYNET 5A","OBJECT_ID":"2007-007B","EPOCH":"2026-03-07T00:40:44.122080","MEAN_MOTION":1.00271444,"ECCENTRICITY":0.00038912,"INCLINATION":5.0409,"RA_OF_ASC_NODE":74.9797,"ARG_OF_PERICENTER":281.4405,"MEAN_ANOMALY":273.7013,"EPHEMERIS_TYPE":0,"CLASSIFICATION_TYPE":"U","NORAD_CAT_ID":30794,"ELEMENT_SET_NO":999,"REV_AT_EPOCH":6967,"BSTAR":0,"MEAN_MOTION_DOT":-2.73e-6,"MEAN_MOTION_DDOT":0},{"OBJECT_NAME":"ANIK F3","OBJECT_ID":"2007-009A","EPOCH":"2026-03-07T11:10:38.474112","MEAN_MOTION":1.00271185,"ECCENTRICITY":0.00027731,"INCLINATION":0.9343,"RA_OF_ASC_NODE":85.1699,"ARG_OF_PERICENTER":260.4163,"MEAN_ANOMALY":228.5354,"EPHEMERIS_TYPE":0,"CLASSIFICATION_TYPE":"U","NORAD_CAT_ID":31102,"ELEMENT_SET_NO":999,"REV_AT_EPOCH":4554,"BSTAR":0,"MEAN_MOTION_DOT":-2.0e-8,"MEAN_MOTION_DDOT":0},{"OBJECT_NAME":"ASTRA 1L","OBJECT_ID":"2007-016A","EPOCH":"2026-03-07T10:26:38.707008","MEAN_MOTION":1.0027101,"ECCENTRICITY":0.00034212,"INCLINATION":1.0583,"RA_OF_ASC_NODE":82.3967,"ARG_OF_PERICENTER":282.6718,"MEAN_ANOMALY":292.2684,"EPHEMERIS_TYPE":0,"CLASSIFICATION_TYPE":"U","NORAD_CAT_ID":31306,"ELEMENT_SET_NO":999,"REV_AT_EPOCH":4396,"BSTAR":0,"MEAN_MOTION_DOT":-1.86e-6,"MEAN_MOTION_DDOT":0},{"OBJECT_NAME":"GALAXY 17 (G-17)","OBJECT_ID":"2007-016B","EPOCH":"2026-03-07T07:54:38.721312","MEAN_MOTION":1.00271716,"ECCENTRICITY":0.00033293,"INCLINATION":2.7138,"RA_OF_ASC_NODE":81.2021,"ARG_OF_PERICENTER":271.4725,"MEAN_ANOMALY":206.0216,"EPHEMERIS_TYPE":0,"CLASSIFICATION_TYPE":"U","NORAD_CAT_ID":31307,"ELEMENT_SET_NO":999,"REV_AT_EPOCH":6878,"BSTAR":0,"MEAN_MOTION_DOT":-2.08e-6,"MEAN_MOTION_DDOT":0},{"OBJECT_NAME":"NIGCOMSAT 1","OBJECT_ID":"2007-018A","EPOCH":"2026-03-06T21:17:44.562048","MEAN_MOTION":1.00235578,"ECCENTRICITY":0.00018654,"INCLINATION":11.6996,"RA_OF_ASC_NODE":33.6693,"ARG_OF_PERICENTER":123.3007,"MEAN_ANOMALY":70.5497,"EPHEMERIS_TYPE":0,"CLASSIFICATION_TYPE":"U","NORAD_CAT_ID":31395,"ELEMENT_SET_NO":999,"REV_AT_EPOCH":6903,"BSTAR":0,"MEAN_MOTION_DOT":-3.3e-6,"MEAN_MOTION_DDOT":0},{"OBJECT_NAME":"WGS F1 (USA 195)","OBJECT_ID":"2007-046A","EPOCH":"2026-03-07T10:42:38.856384","MEAN_MOTION":1.00271987,"ECCENTRICITY":2.462e-5,"INCLINATION":0.0777,"RA_OF_ASC_NODE":87.4965,"ARG_OF_PERICENTER":342.3958,"MEAN_ANOMALY":213.3943,"EPHEMERIS_TYPE":0,"CLASSIFICATION_TYPE":"U","NORAD_CAT_ID":32258,"ELEMENT_SET_NO":999,"REV_AT_EPOCH":5131,"BSTAR":0,"MEAN_MOTION_DOT":-2.69e-6,"MEAN_MOTION_DDOT":0},{"OBJECT_NAME":"SKYNET 5B","OBJECT_ID":"2007-056B","EPOCH":"2026-03-07T05:28:46.504128","MEAN_MOTION":1.00272261,"ECCENTRICITY":0.0004009,"INCLINATION":4.9923,"RA_OF_ASC_NODE":74.718,"ARG_OF_PERICENTER":271.9591,"MEAN_ANOMALY":285.5042,"EPHEMERIS_TYPE":0,"CLASSIFICATION_TYPE":"U","NORAD_CAT_ID":32294,"ELEMENT_SET_NO":999,"REV_AT_EPOCH":6717,"BSTAR":0,"MEAN_MOTION_DOT":1.39e-6,"MEAN_MOTION_DDOT":0},{"OBJECT_NAME":"ASTRA 4A","OBJECT_ID":"2007-057A","EPOCH":"2026-03-07T05:23:02.054112","MEAN_MOTION":1.00271325,"ECCENTRICITY":0.0002425,"INCLINATION":0.0476,"RA_OF_ASC_NODE":297.6138,"ARG_OF_PERICENTER":53.38,"MEAN_ANOMALY":259.4942,"EPHEMERIS_TYPE":0,"CLASSIFICATION_TYPE":"U","NORAD_CAT_ID":32299,"ELEMENT_SET_NO":999,"REV_AT_EPOCH":5062,"BSTAR":0,"MEAN_MOTION_DOT":3.0e-7,"MEAN_MOTION_DDOT":0},{"OBJECT_NAME":"HORIZONS-2","OBJECT_ID":"2007-063B","EPOCH":"2026-03-07T08:18:38.763936","MEAN_MOTION":1.00271011,"ECCENTRICITY":0.00027656,"INCLINATION":2.3393,"RA_OF_ASC_NODE":81.915,"ARG_OF_PERICENTER":263.9315,"MEAN_ANOMALY":230.065,"EPHEMERIS_TYPE":0,"CLASSIFICATION_TYPE":"U","NORAD_CAT_ID":32388,"ELEMENT_SET_NO":999,"REV_AT_EPOCH":6679,"BSTAR":0,"MEAN_MOTION_DOT":-2.55e-6,"MEAN_MOTION_DDOT":0},{"OBJECT_NAME":"THURAYA-3","OBJECT_ID":"2008-001A","EPOCH":"2026-03-07T07:32:27.146112","MEAN_MOTION":1.00269855,"ECCENTRICITY":0.00024275,"INCLINATION":5.8171,"RA_OF_ASC_NODE":35.6068,"ARG_OF_PERICENTER":316.1668,"MEAN_ANOMALY":24.8294,"EPHEMERIS_TYPE":0,"CLASSIFICATION_TYPE":"U","NORAD_CAT_ID":32404,"ELEMENT_SET_NO":999,"REV_AT_EPOCH":6646,"BSTAR":0,"MEAN_MOTION_DOT":-3.02e-6,"MEAN_MOTION_DDOT":0},{"OBJECT_NAME":"EXPRESS-AM33","OBJECT_ID":"2008-003A","EPOCH":"2026-03-07T14:06:55.805760","MEAN_MOTION":1.00173265,"ECCENTRICITY":0.00140328,"INCLINATION":4.5411,"RA_OF_ASC_NODE":76.5744,"ARG_OF_PERICENTER":179.8325,"MEAN_ANOMALY":161.7472,"EPHEMERIS_TYPE":0,"CLASSIFICATION_TYPE":"U","NORAD_CAT_ID":32478,"ELEMENT_SET_NO":999,"REV_AT_EPOCH":5271,"BSTAR":0,"MEAN_MOTION_DOT":1.49e-6,"MEAN_MOTION_DDOT":0},{"OBJECT_NAME":"THOR 5","OBJECT_ID":"2008-006A","EPOCH":"2026-03-07T07:04:07.361760","MEAN_MOTION":1.002717,"ECCENTRICITY":0.0002693,"INCLINATION":0.0441,"RA_OF_ASC_NODE":252.7762,"ARG_OF_PERICENTER":107.1362,"MEAN_ANOMALY":270.3512,"EPHEMERIS_TYPE":0,"CLASSIFICATION_TYPE":"U","NORAD_CAT_ID":32487,"ELEMENT_SET_NO":999,"REV_AT_EPOCH":6629,"BSTAR":0,"MEAN_MOTION_DOT":-1.1e-7,"MEAN_MOTION_DDOT":0},{"OBJECT_NAME":"KIZUNA (WINDS)","OBJECT_ID":"2008-007A","EPOCH":"2026-03-07T07:03:14.946336","MEAN_MOTION":1.00284919,"ECCENTRICITY":0.00011622,"INCLINATION":8.2853,"RA_OF_ASC_NODE":63.3021,"ARG_OF_PERICENTER":204.8356,"MEAN_ANOMALY":358.8749,"EPHEMERIS_TYPE":0,"CLASSIFICATION_TYPE":"U","NORAD_CAT_ID":32500,"ELEMENT_SET_NO":999,"REV_AT_EPOCH":6587,"BSTAR":0,"MEAN_MOTION_DOT":-3.6e-7,"MEAN_MOTION_DDOT":0},{"OBJECT_NAME":"DIRECTV 11","OBJECT_ID":"2008-013A","EPOCH":"2026-03-07T04:53:19.902048","MEAN_MOTION":1.00271577,"ECCENTRICITY":2.924e-5,"INCLINATION":0.0179,"RA_OF_ASC_NODE":336.278,"ARG_OF_PERICENTER":8.7751,"MEAN_ANOMALY":153.9925,"EPHEMERIS_TYPE":0,"CLASSIFICATION_TYPE":"U","NORAD_CAT_ID":32729,"ELEMENT_SET_NO":999,"REV_AT_EPOCH":4457,"BSTAR":0,"MEAN_MOTION_DOT":-1.28e-6,"MEAN_MOTION_DDOT":0},{"OBJECT_NAME":"ICO G1","OBJECT_ID":"2008-016A","EPOCH":"2026-03-07T08:02:37.435200","MEAN_MOTION":1.00272573,"ECCENTRICITY":0.0002698,"INCLINATION":5.5121,"RA_OF_ASC_NODE":36.3699,"ARG_OF_PERICENTER":292.4283,"MEAN_ANOMALY":224.0445,"EPHEMERIS_TYPE":0,"CLASSIFICATION_TYPE":"U","NORAD_CAT_ID":32763,"ELEMENT_SET_NO":999,"REV_AT_EPOCH":6552,"BSTAR":0,"MEAN_MOTION_DOT":-1.73e-6,"MEAN_MOTION_DDOT":0}]
